CCSDS_OMM_VERS = 2.0
CREATION_DATE  = 
ORIGINATOR     = 

OBJECT_NAME    = SZ-21 MODULE
OBJECT_ID      = 2025-246C
CENTER_NAME    = EARTH
REF_FRAME      = TEME
TIME_SYSTEM    = UTC
MEAN_ELEMENT_THEORY = SGP/SGP4

EPOCH          = 2025-11-26T20:58:15.281472
MEAN_MOTION    = 15.61394026
ECCENTRICITY   = .00050089
INCLINATION    = 41.4759
RA_OF_ASC_NODE = 112.7499
ARG_OF_PERICENTER = 159.2058
MEAN_ANOMALY   = 200.8986

EPHEMERIS_TYPE = 0
CLASSIFICATION_TYPE = U
NORAD_CAT_ID   = 66515
ELEMENT_SET_NO = 999
REV_AT_EPOCH   = 196
BSTAR          = .32939202E-3
MEAN_MOTION_DOT = .28683E-3
MEAN_MOTION_DDOT = 0

CCSDS_OMM_VERS = 2.0
CREATION_DATE  = 
ORIGINATOR     = 

OBJECT_NAME    = SHENZHOU-22
OBJECT_ID      = 2025-272A
CENTER_NAME    = EARTH
REF_FRAME      = TEME
TIME_SYSTEM    = UTC
MEAN_ELEMENT_THEORY = SGP/SGP4

EPOCH          = 2025-11-26T18:15:06.628032
MEAN_MOTION    = 15.58310216
ECCENTRICITY   = .00107613
INCLINATION    = 41.4669
RA_OF_ASC_NODE = 113.6485
ARG_OF_PERICENTER = 276.2599
MEAN_ANOMALY   = 83.7013

EPHEMERIS_TYPE = 0
CLASSIFICATION_TYPE = U
NORAD_CAT_ID   = 66645
ELEMENT_SET_NO = 999
REV_AT_EPOCH   = 26153
BSTAR          = .3051458E-3
MEAN_MOTION_DOT = .23599E-3
MEAN_MOTION_DDOT = 0

CCSDS_OMM_VERS = 2.0
CREATION_DATE  = 
ORIGINATOR     = 

OBJECT_NAME    = CZ-2F R/B
OBJECT_ID      = 2025-272B
CENTER_NAME    = EARTH
REF_FRAME      = TEME
TIME_SYSTEM    = UTC
MEAN_ELEMENT_THEORY = SGP/SGP4

EPOCH          = 2025-11-26T11:17:54.506400
MEAN_MOTION    = 16.01945612
ECCENTRICITY   = .01210796
INCLINATION    = 41.4431
RA_OF_ASC_NODE = 114.9009
ARG_OF_PERICENTER = 133.7676
MEAN_ANOMALY   = 227.3272

EPHEMERIS_TYPE = 0
CLASSIFICATION_TYPE = U
NORAD_CAT_ID   = 66646
ELEMENT_SET_NO = 999
REV_AT_EPOCH   = 21
BSTAR          = .29319366E-3
MEAN_MOTION_DOT = .449059E-2
MEAN_MOTION_DDOT = .7567612E-5

